ONEWEB-0082             
1 45452U 20020AE  26131.17669450  .00000088  00000+0  21253-3 0  9996
2 45452  87.8927  28.4172 0002042  76.7335 283.4021 13.11418226297823
ONEWEB-0050             
1 45453U 20020AF  26131.14478070  .00000917  00000+0  92341-4 0  9998
2 45453  88.9294 238.2376 0006019 103.8209 256.3690 14.90206999334867
ONEWEB-0034             
1 45454U 20020AG  26131.12727277 -.00000547  00000+0 -15909-2 0  9997
2 45454  87.8927  28.4319 0001802  78.4043 281.7287 13.10933359297739
ONEWEB-0060             
1 45455U 20020AH  26131.16904499  .00000543  00000+0  14965-2 0  9990
2 45455  87.8921  28.4288 0002759  68.7781 291.3641 13.11417464297693
ONEWEB-0086             
1 45456U 20020AJ  26131.14784310  .00000190  00000+0  49964-3 0  9993
2 45456  87.8931  28.4257 0002133  60.0259 300.1081 13.11420514297756
ONEWEB-0088             
1 45457U 20020AK  26131.12580617 -.00000549  00000+0 -15837-2 0  9997
2 45457  87.8940  28.3995 0001996  91.9379 268.1978 13.11417199297682
ONEWEB-0102             
1 47258U 20100A   26131.15892990  .00000430  00000+0  11603-2 0  9994
2 47258  87.8968 358.0395 0001788  75.3222 284.8105 13.12444202259874
ONEWEB-0109             
1 47259U 20100B   26131.16740404  .00000204  00000+0  53254-3 0  9996
2 47259  87.8977 358.0178 0001615  81.5706 278.5605 13.12440738259706
ONEWEB-0110             
1 47260U 20100C   26131.11826732 -.00000607  00000+0 -17223-2 0  9996
2 47260  87.8979 358.0119 0001859  75.3131 284.8203 13.12443023259869
ONEWEB-0111             
1 47261U 20100D   26131.14877132  .00000405  00000+0  10913-2 0  9993
2 47261  87.8976 358.0244 0001890  82.3057 277.8286 13.12443010259708
ONEWEB-0114             
1 47262U 20100E   26131.17925422 -.00000318  00000+0 -92018-3 0  9995
2 47262  87.8981 358.0152 0001538  87.8791 272.2513 13.12441614259662
ONEWEB-0117             
1 47263U 20100F   26131.17078876  .00000187  00000+0  48508-3 0  9995
2 47263  87.8976 358.0091 0001749  81.3038 278.8289 13.12443144259679
ONEWEB-0118             
1 47264U 20100G   26131.12843514 -.00000231  00000+0 -67680-3 0  9994
2 47264  87.8976 358.0199 0001657  93.3047 266.8271 13.12445301259866
ONEWEB-0119             
1 47265U 20100H   26131.15384867  .00000454  00000+0  12276-2 0  9994
2 47265  87.8967 358.0351 0001739  83.2934 276.8392 13.12444689259842
ONEWEB-0120             
1 47266U 20100J   26131.17769654 -.00000194  00000+0 -57446-3 0  9990
2 47266  87.8968 358.0313 0001643  82.5930 277.5385 13.12441732259873
ONEWEB-0121             
1 47267U 20100K   26131.16571869  .00000313  00000+0  83342-3 0  9994
2 47267  87.8978 358.0162 0002079  81.9677 278.1688 13.12443441259784
