[{"OBJECT_NAME":"ONEWEB-0082","OBJECT_ID":"2020-020AE","EPOCH":"2026-05-11T04:14:26.404800","MEAN_MOTION":13.11418226,"ECCENTRICITY":0.0002042,"INCLINATION":87.8927,"RA_OF_ASC_NODE":28.4172,"ARG_OF_PERICENTER":76.7335,"MEAN_ANOMALY":283.4021,"EPHEMERIS_TYPE":0,"CLASSIFICATION_TYPE":"U","NORAD_CAT_ID":45452,"ELEMENT_SET_NO":999,"REV_AT_EPOCH":29782,"BSTAR":0.00021253,"MEAN_MOTION_DOT":8.8e-07,"MEAN_MOTION_DDOT":0.0},{"OBJECT_NAME":"ONEWEB-0050","OBJECT_ID":"2020-020AF","EPOCH":"2026-05-11T03:28:29.052480","MEAN_MOTION":14.90206999,"ECCENTRICITY":0.0006019,"INCLINATION":88.9294,"RA_OF_ASC_NODE":238.2376,"ARG_OF_PERICENTER":103.8209,"MEAN_ANOMALY":256.369,"EPHEMERIS_TYPE":0,"CLASSIFICATION_TYPE":"U","NORAD_CAT_ID":45453,"ELEMENT_SET_NO":999,"REV_AT_EPOCH":33486,"BSTAR":9.2341e-05,"MEAN_MOTION_DOT":9.17e-06,"MEAN_MOTION_DDOT":0.0},{"OBJECT_NAME":"ONEWEB-0034","OBJECT_ID":"2020-020AG","EPOCH":"2026-05-11T03:03:16.367328","MEAN_MOTION":13.10933359,"ECCENTRICITY":0.0001802,"INCLINATION":87.8927,"RA_OF_ASC_NODE":28.4319,"ARG_OF_PERICENTER":78.4043,"MEAN_ANOMALY":281.7287,"EPHEMERIS_TYPE":0,"CLASSIFICATION_TYPE":"U","NORAD_CAT_ID":45454,"ELEMENT_SET_NO":999,"REV_AT_EPOCH":29773,"BSTAR":-0.0015909000000000001,"MEAN_MOTION_DOT":-5.47e-06,"MEAN_MOTION_DDOT":0.0},{"OBJECT_NAME":"ONEWEB-0060","OBJECT_ID":"2020-020AH","EPOCH":"2026-05-11T04:03:25.487136","MEAN_MOTION":13.11417464,"ECCENTRICITY":0.0002759,"INCLINATION":87.8921,"RA_OF_ASC_NODE":28.4288,"ARG_OF_PERICENTER":68.7781,"MEAN_ANOMALY":291.3641,"EPHEMERIS_TYPE":0,"CLASSIFICATION_TYPE":"U","NORAD_CAT_ID":45455,"ELEMENT_SET_NO":999,"REV_AT_EPOCH":29769,"BSTAR":0.0014965,"MEAN_MOTION_DOT":5.43e-06,"MEAN_MOTION_DDOT":0.0},{"OBJECT_NAME":"ONEWEB-0086","OBJECT_ID":"2020-020AJ","EPOCH":"2026-05-11T03:32:53.643840","MEAN_MOTION":13.11420514,"ECCENTRICITY":0.0002133,"INCLINATION":87.8931,"RA_OF_ASC_NODE":28.4257,"ARG_OF_PERICENTER":60.0259,"MEAN_ANOMALY":300.1081,"EPHEMERIS_TYPE":0,"CLASSIFICATION_TYPE":"U","NORAD_CAT_ID":45456,"ELEMENT_SET_NO":999,"REV_AT_EPOCH":29775,"BSTAR":0.00049964,"MEAN_MOTION_DOT":1.9e-06,"MEAN_MOTION_DDOT":0.0},{"OBJECT_NAME":"ONEWEB-0088","OBJECT_ID":"2020-020AK","EPOCH":"2026-05-11T03:01:09.653088","MEAN_MOTION":13.11417199,"ECCENTRICITY":0.0001996,"INCLINATION":87.894,"RA_OF_ASC_NODE":28.3995,"ARG_OF_PERICENTER":91.9379,"MEAN_ANOMALY":268.1978,"EPHEMERIS_TYPE":0,"CLASSIFICATION_TYPE":"U","NORAD_CAT_ID":45457,"ELEMENT_SET_NO":999,"REV_AT_EPOCH":29768,"BSTAR":-0.0015837000000000002,"MEAN_MOTION_DOT":-5.49e-06,"MEAN_MOTION_DDOT":0.0},{"OBJECT_NAME":"ONEWEB-0102","OBJECT_ID":"2020-100A","EPOCH":"2026-05-11T03:48:51.543360","MEAN_MOTION":13.12444202,"ECCENTRICITY":0.0001788,"INCLINATION":87.8968,"RA_OF_ASC_NODE":358.0395,"ARG_OF_PERICENTER":75.3222,"MEAN_ANOMALY":284.8105,"EPHEMERIS_TYPE":0,"CLASSIFICATION_TYPE":"U","NORAD_CAT_ID":47258,"ELEMENT_SET_NO":999,"REV_AT_EPOCH":25987,"BSTAR":0.0011603,"MEAN_MOTION_DOT":4.3e-06,"MEAN_MOTION_DDOT":0.0},{"OBJECT_NAME":"ONEWEB-0109","OBJECT_ID":"2020-100B","EPOCH":"2026-05-11T04:01:03.709056","MEAN_MOTION":13.12440738,"ECCENTRICITY":0.0001615,"INCLINATION":87.8977,"RA_OF_ASC_NODE":358.0178,"ARG_OF_PERICENTER":81.5706,"MEAN_ANOMALY":278.5605,"EPHEMERIS_TYPE":0,"CLASSIFICATION_TYPE":"U","NORAD_CAT_ID":47259,"ELEMENT_SET_NO":999,"REV_AT_EPOCH":25970,"BSTAR":0.0005325400000000001,"MEAN_MOTION_DOT":2.04e-06,"MEAN_MOTION_DDOT":0.0},{"OBJECT_NAME":"ONEWEB-0110","OBJECT_ID":"2020-100C","EPOCH":"2026-05-11T02:50:18.296448","MEAN_MOTION":13.12443023,"ECCENTRICITY":0.0001859,"INCLINATION":87.8979,"RA_OF_ASC_NODE":358.0119,"ARG_OF_PERICENTER":75.3131,"MEAN_ANOMALY":284.8203,"EPHEMERIS_TYPE":0,"CLASSIFICATION_TYPE":"U","NORAD_CAT_ID":47260,"ELEMENT_SET_NO":999,"REV_AT_EPOCH":25986,"BSTAR":-0.0017223,"MEAN_MOTION_DOT":-6.07e-06,"MEAN_MOTION_DDOT":0.0},{"OBJECT_NAME":"ONEWEB-0111","OBJECT_ID":"2020-100D","EPOCH":"2026-05-11T03:34:13.842048","MEAN_MOTION":13.1244301,"ECCENTRICITY":0.000189,"INCLINATION":87.8976,"RA_OF_ASC_NODE":358.0244,"ARG_OF_PERICENTER":82.3057,"MEAN_ANOMALY":277.8286,"EPHEMERIS_TYPE":0,"CLASSIFICATION_TYPE":"U","NORAD_CAT_ID":47261,"ELEMENT_SET_NO":999,"REV_AT_EPOCH":25970,"BSTAR":0.0010913000000000001,"MEAN_MOTION_DOT":4.05e-06,"MEAN_MOTION_DDOT":0.0},{"OBJECT_NAME":"ONEWEB-0114","OBJECT_ID":"2020-100E","EPOCH":"2026-05-11T04:18:07.564608","MEAN_MOTION":13.12441614,"ECCENTRICITY":0.0001538,"INCLINATION":87.8981,"RA_OF_ASC_NODE":358.0152,"ARG_OF_PERICENTER":87.8791,"MEAN_ANOMALY":272.2513,"EPHEMERIS_TYPE":0,"CLASSIFICATION_TYPE":"U","NORAD_CAT_ID":47262,"ELEMENT_SET_NO":999,"REV_AT_EPOCH":25966,"BSTAR":-0.00092018,"MEAN_MOTION_DOT":-3.18e-06,"MEAN_MOTION_DDOT":0.0},{"OBJECT_NAME":"ONEWEB-0117","OBJECT_ID":"2020-100F","EPOCH":"2026-05-11T04:05:56.148864","MEAN_MOTION":13.12443144,"ECCENTRICITY":0.0001749,"INCLINATION":87.8976,"RA_OF_ASC_NODE":358.0091,"ARG_OF_PERICENTER":81.3038,"MEAN_ANOMALY":278.8289,"EPHEMERIS_TYPE":0,"CLASSIFICATION_TYPE":"U","NORAD_CAT_ID":47263,"ELEMENT_SET_NO":999,"REV_AT_EPOCH":25967,"BSTAR":0.00048508000000000004,"MEAN_MOTION_DOT":1.87e-06,"MEAN_MOTION_DDOT":0.0},{"OBJECT_NAME":"ONEWEB-0118","OBJECT_ID":"2020-100G","EPOCH":"2026-05-11T03:04:56.796096","MEAN_MOTION":13.12445301,"ECCENTRICITY":0.0001657,"INCLINATION":87.8976,"RA_OF_ASC_NODE":358.0199,"ARG_OF_PERICENTER":93.3047,"MEAN_ANOMALY":266.8271,"EPHEMERIS_TYPE":0,"CLASSIFICATION_TYPE":"U","NORAD_CAT_ID":47264,"ELEMENT_SET_NO":999,"REV_AT_EPOCH":25986,"BSTAR":-0.0006768,"MEAN_MOTION_DOT":-2.31e-06,"MEAN_MOTION_DDOT":0.0},{"OBJECT_NAME":"ONEWEB-0119","OBJECT_ID":"2020-100H","EPOCH":"2026-05-11T03:41:32.525088","MEAN_MOTION":13.12444689,"ECCENTRICITY":0.0001739,"INCLINATION":87.8967,"RA_OF_ASC_NODE":358.0351,"ARG_OF_PERICENTER":83.2934,"MEAN_ANOMALY":276.8392,"EPHEMERIS_TYPE":0,"CLASSIFICATION_TYPE":"U","NORAD_CAT_ID":47265,"ELEMENT_SET_NO":999,"REV_AT_EPOCH":25984,"BSTAR":0.0012276,"MEAN_MOTION_DOT":4.54e-06,"MEAN_MOTION_DDOT":0.0},{"OBJECT_NAME":"ONEWEB-0120","OBJECT_ID":"2020-100J","EPOCH":"2026-05-11T04:15:52.981056","MEAN_MOTION":13.12441732,"ECCENTRICITY":0.0001643,"INCLINATION":87.8968,"RA_OF_ASC_NODE":358.0313,"ARG_OF_PERICENTER":82.593,"MEAN_ANOMALY":277.5385,"EPHEMERIS_TYPE":0,"CLASSIFICATION_TYPE":"U","NORAD_CAT_ID":47266,"ELEMENT_SET_NO":999,"REV_AT_EPOCH":25987,"BSTAR":-0.0005744599999999999,"MEAN_MOTION_DOT":-1.94e-06,"MEAN_MOTION_DDOT":0.0},{"OBJECT_NAME":"ONEWEB-0121","OBJECT_ID":"2020-100K","EPOCH":"2026-05-11T03:58:38.094816","MEAN_MOTION":13.12443441,"ECCENTRICITY":0.0002079,"INCLINATION":87.8978,"RA_OF_ASC_NODE":358.0162,"ARG_OF_PERICENTER":81.9677,"MEAN_ANOMALY":278.1688,"EPHEMERIS_TYPE":0,"CLASSIFICATION_TYPE":"U","NORAD_CAT_ID":47267,"ELEMENT_SET_NO":999,"REV_AT_EPOCH":25978,"BSTAR":0.0008334200000000001,"MEAN_MOTION_DOT":3.13e-06,"MEAN_MOTION_DDOT":0.0}]